[{"OBJECT_NAME":"OBJECT Y","OBJECT_ID":"2023-085Y","EPOCH":"2026-03-09T22:38:54.992256","MEAN_MOTION":15.32500153,"ECCENTRICITY":0.00063298,"INCLINATION":97.4849,"RA_OF_ASC_NODE":180.8653,"ARG_OF_PERICENTER":67.4431,"MEAN_ANOMALY":292.748,"EPHEMERIS_TYPE":0,"CLASSIFICATION_TYPE":"U","NORAD_CAT_ID":57026,"ELEMENT_SET_NO":999,"REV_AT_EPOCH":15160,"BSTAR":0.00065512761,"MEAN_MOTION_DOT":0.00020524,"MEAN_MOTION_DDOT":0},{"OBJECT_NAME":"STARLINK-33658","OBJECT_ID":"2025-063X","EPOCH":"2026-03-09T06:33:10.020096","MEAN_MOTION":15.30200911,"ECCENTRICITY":0.00012116,"INCLINATION":53.1612,"RA_OF_ASC_NODE":54.5364,"ARG_OF_PERICENTER":102.643,"MEAN_ANOMALY":257.4706,"EPHEMERIS_TYPE":0,"CLASSIFICATION_TYPE":"U","NORAD_CAT_ID":63384,"ELEMENT_SET_NO":999,"REV_AT_EPOCH":5469,"BSTAR":0.00053366897,"MEAN_MOTION_DOT":0.0001548,"MEAN_MOTION_DDOT":0}]
